TOMORROW-S2             
1 60485U 24149T   26176.71885929  .00009327  00000+0  29623-3 0  9999
2 60485  97.3821 257.6614 0001961 207.9049 152.2088 15.32865884103396
FLOCK 4BE-36            
1 60486U 24149U   26176.80824839  .00019946  00000+0  45437-3 0  9992
2 60486  97.3747 261.3407 0003138 214.1267 145.9779 15.42970874103681
FLOCK 4BE-25            
1 60487U 24149V   26176.47574302  .00016303  00000+0  42353-3 0  9991
2 60487  97.3799 259.6828 0002149 187.6777 172.4436 15.39030282103510
FLOCK 4BE-31            
1 60488U 24149W   26176.70180358  .00025672  00000+0  55647-3 0  9991
2 60488  97.3797 262.1151 0002223 203.5502 156.5644 15.44402037103694
FLOCK 4BE-20            
1 60489U 24149X   26176.70360027  .00017686  00000+0  47074-3 0  9996
2 60489  97.3698 258.7694 0003307 210.2130 149.8925 15.38261699103523
FLOCK 4BE-23            
1 60490U 24149Y   26176.69597698  .00016237  00000+0  43800-3 0  9996
2 60490  97.3781 259.1430 0002754 214.3756 145.7311 15.37868378103503
FLOCK 4BE-17            
1 60492U 24149AA  26176.79837856  .00019292  00000+0  48470-3 0  9994
2 60492  97.3775 260.2364 0002907 199.7700 160.3434 15.40016693103588
NUSAT-50 (NANCY ROMAN)  
1 60493U 24149AB  26176.67109787  .00011200  00000+0  38812-3 0  9997
2 60493  97.3784 257.8679 0004144 150.1394 210.0084 15.29993226103425
FLOCK 4BE-22            
1 60494U 24149AC  26176.70726705  .00020323  00000+0  48758-3 0  9993
2 60494  97.3735 260.3496 0003086 214.5144 145.5903 15.41407772103613
FLOCK 4BE-34            
1 60495U 24149AD  26176.72448891  .00018147  00000+0  43600-3 0  9995
2 60495  97.3787 261.1952 0002833 222.1507 137.9522 15.41388956103641
TYCHE                   
1 60496U 24149AE  26175.80756861  .00004034  00000+0  15953-3 0  9993
2 60496  97.3755 253.5231 0001330 192.8469 167.2736 15.26042337103065
FLOCK 4BE-32            
1 60497U 24149AF  26176.68745420  .00020397  00000+0  47313-3 0  9995
2 60497  97.3723 260.7070 0003175 217.4879 142.6148 15.42423133103643
NUSAT-48 (HENRIETTA LE*)
1 60498U 24149AG  26176.72509539  .00011005  00000+0  38141-3 0  9995
2 60498  97.3922 258.1799 0002806 229.4847 130.6150 15.29996746103440
FLOCK 4BE-30            
1 60499U 24149AH  26176.67342038  .00162730  00000+0  20853-2 0  9991
2 60499  97.3785 262.4897 0005316 228.5909 131.4890 15.58604383103099
NUSAT-49 (KLARA DAN VO*)
1 60500U 24149AJ  26176.70271270  .00010849  00000+0  37516-3 0  9995
2 60500  97.3784 257.9314 0000683 249.7953 110.3215 15.30074881103439
FLOCK 4BE-11            
1 60501U 24149AK  26176.67756414  .00021665  00000+0  48878-3 0  9991
2 60501  97.3702 260.9363 0003405 219.3656 140.7344 15.43241742103667
YAM-7                   
1 60504U 24149AN  26176.67980558  .00008606  00000+0  28165-3 0  9999
2 60504  97.3787 256.8951 0001910 251.4621 108.6413 15.31926008103356
FLOCK 4BE-24            
1 60505U 24149AP  26176.46901860  .00024737  00000+0  55539-3 0  9994
2 60505  97.3719 260.9836 0003286 235.3817 124.7121 15.43360902103641
LUR-1                   
1 60506U 24149AQ  26176.67964693  .00008098  00000+0  27965-3 0  9995
2 60506  97.3741 255.4466 0002519 272.3773  87.7179 15.30207094103273
TANAGER-1               
1 60507U 24149AR  26175.15522891  .00001017  00000+0  23583-4 0  9995
2 60507  97.2460 269.3892 0004153 272.4125  87.6649 15.44790825104115
EAGLEEYE                
1 60508U 24149AS  26176.70215187  .00119673  00000+0  88954-3 0  9995
2 60508  97.3723 270.5188 0004849 218.1364 141.9557 15.72456338104273
FLOCK 4BE-29            
1 60509U 24149AT  26176.66854959  .00021878  00000+0  47473-3 0  9997
2 60509  97.3811 262.6695 0001797 233.5974 126.5108 15.44403476103728
TRANSPORTER-11 OBJECT AU
1 60510U 24149AU  26176.69812889  .00018134  00000+0  44949-3 0  9994
2 60510  97.3730 260.4870 0002523 241.1410 118.9583 15.40443507103625
FLOCK 4BE-2             
1 60511U 24149AV  26176.69267911  .00070272  00000+0  10958-2 0  9998
2 60511  97.3834 264.2352 0004086 223.5009 136.5923 15.53606693103829
FLOCK 4BE-13            
1 60512U 24149AW  26176.72190847  .00017552  00000+0  41188-3 0  9998
2 60512  97.3723 261.2227 0003464 220.8979 139.2009 15.42104722103683
FLOCK 4BE-27            
1 60513U 24149AX  26176.67171522  .00011018  00000+0  33107-3 0  9995
2 60513  97.3828 258.5271 0002354 266.3770  93.7204 15.34584781103442
FLOCK 4BE-9             
1 60514U 24149AY  26176.46729918  .00019142  00000+0  46537-3 0  9998
2 60514  97.3795 260.8198 0001782 239.3348 120.7723 15.41022025103594
FLOCK 4BE-6             
1 60516U 24149BA  26176.69762279  .00018169  00000+0  46007-3 0  9992
2 60516  97.3792 260.3945 0002419 243.7871 116.3127 15.39792736103584
