OBJECT_NAME,OBJECT_ID,EPOCH,MEAN_MOTION,ECCENTRICITY,INCLINATION,RA_OF_ASC_NODE,ARG_OF_PERICENTER,MEAN_ANOMALY,EPHEMERIS_TYPE,CLASSIFICATION_TYPE,NORAD_CAT_ID,ELEMENT_SET_NO,REV_AT_EPOCH,BSTAR,MEAN_MOTION_DOT,MEAN_MOTION_DDOT
TOMORROW-S2,2024-149T,2026-06-25T17:15:09.442656,15.32865884,.0001961,97.3821,257.6614,207.9049,152.2088,0,U,60485,999,10339,.29623E-3,.9327E-4,0
FLOCK 4BE-36,2024-149U,2026-06-25T19:23:52.660896,15.42970874,.0003138,97.3747,261.3407,214.1267,145.9779,0,U,60486,999,10368,.45437E-3,.19946E-3,0
FLOCK 4BE-25,2024-149V,2026-06-25T11:25:04.196928,15.39030282,.0002149,97.3799,259.6828,187.6777,172.4436,0,U,60487,999,10351,.42353E-3,.16303E-3,0
FLOCK 4BE-31,2024-149W,2026-06-25T16:50:35.829312,15.44402037,.0002223,97.3797,262.1151,203.5502,156.5644,0,U,60488,999,10369,.55647E-3,.25672E-3,0
FLOCK 4BE-20,2024-149X,2026-06-25T16:53:11.063328,15.38261699,.0003307,97.3698,258.7694,210.2130,149.8925,0,U,60489,999,10352,.47074E-3,.17686E-3,0
FLOCK 4BE-23,2024-149Y,2026-06-25T16:42:12.411072,15.37868378,.0002754,97.3781,259.1430,214.3756,145.7311,0,U,60490,999,10350,.438E-3,.16237E-3,0
FLOCK 4BE-17,2024-149AA,2026-06-25T19:09:39.907584,15.40016693,.0002907,97.3775,260.2364,199.7700,160.3434,0,U,60492,999,10358,.4847E-3,.19292E-3,0
NUSAT-50 (NANCY ROMAN),2024-149AB,2026-06-25T16:06:22.855968,15.29993226,.0004144,97.3784,257.8679,150.1394,210.0084,0,U,60493,999,10342,.38812E-3,.112E-3,0
FLOCK 4BE-22,2024-149AC,2026-06-25T16:58:27.873120,15.41407772,.0003086,97.3735,260.3496,214.5144,145.5903,0,U,60494,999,10361,.48758E-3,.20323E-3,0
FLOCK 4BE-34,2024-149AD,2026-06-25T17:23:15.841824,15.41388956,.0002833,97.3787,261.1952,222.1507,137.9522,0,U,60495,999,10364,.436E-3,.18147E-3,0
TYCHE,2024-149AE,2026-06-24T19:22:53.927904,15.26042337,.00013303,97.3755,253.5231,192.8469,167.2736,0,U,60496,999,10306,.15953413E-3,.4034E-4,0
FLOCK 4BE-32,2024-149AF,2026-06-25T16:29:56.042880,15.42423133,.0003175,97.3723,260.7070,217.4879,142.6148,0,U,60497,999,10364,.47313E-3,.20397E-3,0
NUSAT-48 (HENRIETTA LEAVITT),2024-149AG,2026-06-25T17:24:08.241696,15.29996746,.0002806,97.3922,258.1799,229.4847,130.6150,0,U,60498,999,10344,.38141E-3,.11005E-3,0
FLOCK 4BE-30,2024-149AH,2026-06-25T16:09:43.520832,15.58604383,.0005316,97.3785,262.4897,228.5909,131.4890,0,U,60499,999,10309,.20853E-2,.16273E-2,0
NUSAT-49 (KLARA DAN VON NEUMANN),2024-149AJ,2026-06-25T16:51:54.377280,15.30074881,.0000683,97.3784,257.9314,249.7953,110.3215,0,U,60500,999,10343,.37516E-3,.10849E-3,0
FLOCK 4BE-11,2024-149AK,2026-06-25T16:15:41.541696,15.43241742,.0003405,97.3702,260.9363,219.3656,140.7344,0,U,60501,999,10366,.48878E-3,.21665E-3,0
YAM-7,2024-149AN,2026-06-25T16:18:55.202112,15.31926008,.000191,97.3787,256.8951,251.4621,108.6413,0,U,60504,999,10335,.28165E-3,.8606E-4,0
FLOCK 4BE-24,2024-149AP,2026-06-25T11:15:23.207040,15.43360902,.0003286,97.3719,260.9836,235.3817,124.7121,0,U,60505,999,10364,.55539E-3,.24737E-3,0
LUR-1,2024-149AQ,2026-06-25T16:18:41.494752,15.30207094,.0002519,97.3741,255.4466,272.3773,87.7179,0,U,60506,999,10327,.27965E-3,.8098E-4,0
TANAGER-1,2024-149AR,2026-06-24T03:43:31.777824,15.44790825,.00041531,97.2460,269.3892,272.4125,87.6649,0,U,60507,999,10411,.23583259E-4,.1017E-4,0
EAGLEEYE,2024-149AS,2026-06-25T16:51:05.921568,15.72456338,.0004849,97.3723,270.5188,218.1364,141.9557,0,U,60508,999,10427,.88954E-3,.119673E-2,0
FLOCK 4BE-29,2024-149AT,2026-06-25T16:02:42.684576,15.44403476,.0001797,97.3811,262.6695,233.5974,126.5108,0,U,60509,999,10372,.47473E-3,.21878E-3,0
TRANSPORTER-11 OBJECT AU,2024-149AU,2026-06-25T16:45:18.336096,15.40443507,.0002523,97.3730,260.4870,241.1410,118.9583,0,U,60510,999,10362,.44949E-3,.18134E-3,0
FLOCK 4BE-2,2024-149AV,2026-06-25T16:37:27.475104,15.53606693,.0004086,97.3834,264.2352,223.5009,136.5923,0,U,60511,999,10382,.10958E-2,.70272E-3,0
FLOCK 4BE-13,2024-149AW,2026-06-25T17:19:32.891808,15.42104722,.0003464,97.3723,261.2227,220.8979,139.2009,0,U,60512,999,10368,.41188E-3,.17552E-3,0
FLOCK 4BE-27,2024-149AX,2026-06-25T16:07:16.195008,15.34584781,.0002354,97.3828,258.5271,266.3770,93.7204,0,U,60513,999,10344,.33107E-3,.11018E-3,0
FLOCK 4BE-9,2024-149AY,2026-06-25T11:12:54.649152,15.41022025,.0001782,97.3795,260.8198,239.3348,120.7723,0,U,60514,999,10359,.46537E-3,.19142E-3,0
FLOCK 4BE-6,2024-149BA,2026-06-25T16:44:34.609056,15.39792736,.0002419,97.3792,260.3945,243.7871,116.3127,0,U,60516,999,10358,.46007E-3,.18169E-3,0
